[{"OBJECT_NAME":"IRIDIUM 121","OBJECT_ID":"2017-039K","EPOCH":"2026-03-09T22:57:50.967360","MEAN_MOTION":14.34217682,"ECCENTRICITY":0.00021772,"INCLINATION":86.3973,"RA_OF_ASC_NODE":35.125,"ARG_OF_PERICENTER":87.8477,"MEAN_ANOMALY":272.2968,"EPHEMERIS_TYPE":0,"CLASSIFICATION_TYPE":"U","NORAD_CAT_ID":42812,"ELEMENT_SET_NO":999,"REV_AT_EPOCH":45560,"BSTAR":5.919812e-6,"MEAN_MOTION_DOT":3.6e-7,"MEAN_MOTION_DDOT":0},{"OBJECT_NAME":"COSMOS 2251 DEB","OBJECT_ID":"1993-036ARX","EPOCH":"2026-03-08T07:52:28.815456","MEAN_MOTION":13.41394845,"ECCENTRICITY":0.04495509,"INCLINATION":73.7707,"RA_OF_ASC_NODE":185.9939,"ARG_OF_PERICENTER":67.9051,"MEAN_ANOMALY":326.4337,"EPHEMERIS_TYPE":0,"CLASSIFICATION_TYPE":"U","NORAD_CAT_ID":35777,"ELEMENT_SET_NO":999,"REV_AT_EPOCH":80832,"BSTAR":0.00040109255,"MEAN_MOTION_DOT":3.86e-6,"MEAN_MOTION_DDOT":0}]
